start=new Date('2021-11-26T00:00:00.000Z').valueOf();
sats=[{"TLE_LINE2":"2 48030  53.0537 162.2478 0002037  81.8196 278.3024 15.06398189 38619","RCS_SIZE":"LARGE","ELEMENT_SET_NO":"999","RA_OF_ASC_NODE":"162.2478","MEAN_MOTION_DDOT":"0.0000000000000","TLE_LINE1":"1 48030U 21024BF  21329.67080326  .00000552  00000-0  55957-4 0  9990","MEAN_MOTION_DOT":"0.00000552","REV_AT_EPOCH":"3861","DECAY_DATE":null,"ARG_OF_PERICENTER":"81.8196","BSTAR":"0.00005595700000","FILE":"3224126","OBJECT_NAME":"STARLINK-2268","REF_FRAME":"TEME","ECCENTRICITY":"0.00020370","PERIOD":"95.592","GP_ID":"190494227","INCLINATION":"53.0537","CLASSIFICATION_TYPE":"U","EPOCH":"2021-11-25T16:05:57.401664","MEAN_ELEMENT_THEORY":"SGP4","LAUNCH_DATE":"2021-03-24","TIME_SYSTEM":"UTC","NORAD_CAT_ID":"48030","CENTER_NAME":"EARTH","MEAN_MOTION":"15.06398189","MEAN_ANOMALY":"278.3024","OBJECT_TYPE":"PAYLOAD","OBJECT_ID":"2021-024BF","SEMIMAJOR_AXIS":"6925.354","SITE":"AFETR","APOAPSIS":"548.630","PERIAPSIS":"545.808","COUNTRY_CODE":"US","EPHEMERIS_TYPE":"0"},{"PERIAPSIS":"343.861","COUNTRY_CODE":"US","EPHEMERIS_TYPE":"0","SITE":"AFETR","SEMIMAJOR_AXIS":"6727.821","APOAPSIS":"355.510","CENTER_NAME":"EARTH","MEAN_MOTION":"15.73226151","MEAN_ANOMALY":"334.0226","OBJECT_TYPE":"PAYLOAD","OBJECT_ID":"2021-024BG","PERIOD":"91.532","GP_ID":"190492975","INCLINATION":"53.0528","CLASSIFICATION_TYPE":"U","EPOCH":"2021-11-25T20:00:01.000224","LAUNCH_DATE":"2021-03-24","MEAN_ELEMENT_THEORY":"SGP4","TIME_SYSTEM":"UTC","NORAD_CAT_ID":"48031","OBJECT_NAME":"STARLINK-2267","REF_FRAME":"TEME","ECCENTRICITY":"0.00086570","ARG_OF_PERICENTER":"318.9614","BSTAR":"-0.00036526000000","FILE":"3224126","REV_AT_EPOCH":"367","MEAN_MOTION_DOT":"-0.00051772","DECAY_DATE":null,"TLE_LINE2":"2 48031  53.0528  59.6118 0008657 318.9614 334.0226 15.73226151  3678","RA_OF_ASC_NODE":"59.6118","RCS_SIZE":"LARGE","ELEMENT_SET_NO":"999","MEAN_MOTION_DDOT":"0.0000000000000","TLE_LINE1":"1 48031U 21024BG  21329.83334491 -.00051772  00000-0 -36526-3 0  9996"},{"SITE":"AFETR","SEMIMAJOR_AXIS":"6722.287","APOAPSIS":"349.008","PERIAPSIS":"339.296","EPHEMERIS_TYPE":"0","COUNTRY_CODE":"US","CLASSIFICATION_TYPE":"U","PERIOD":"91.419","GP_ID":"190493225","INCLINATION":"53.0543","TIME_SYSTEM":"UTC","NORAD_CAT_ID":"48032","EPOCH":"2021-11-25T20:00:01.000224","MEAN_ELEMENT_THEORY":"SGP4","LAUNCH_DATE":"2021-03-24","MEAN_MOTION":"15.75169006","MEAN_ANOMALY":"29.2864","CENTER_NAME":"EARTH","OBJECT_ID":"2021-024BH","OBJECT_TYPE":"PAYLOAD","ARG_OF_PERICENTER":"278.8167","FILE":"3224126","BSTAR":"0.00129910000000","REF_FRAME":"TEME","OBJECT_NAME":"STARLINK-2297","ECCENTRICITY":"0.00072240","MEAN_MOTION_DDOT":"0.0000000000000","TLE_LINE2":"2 48032  53.0543  59.6456 0007224 278.8167  29.2864 15.75169006  3675","ELEMENT_SET_NO":"999","RCS_SIZE":"LARGE","RA_OF_ASC_NODE":"59.6456","TLE_LINE1":"1 48032U 21024BH  21329.83334491  .00202991  00000-0  12991-2 0  9995","REV_AT_EPOCH":"367","MEAN_MOTION_DOT":"0.00202991","DECAY_DATE":null},{"CLASSIFICATION_TYPE":"U","PERIOD":"95.541","GP_ID":"190465489","INCLINATION":"53.0531","TIME_SYSTEM":"UTC","NORAD_CAT_ID":"48033","EPOCH":"2021-11-25T13:36:18.254880","LAUNCH_DATE":"2021-03-24","MEAN_ELEMENT_THEORY":"SGP4","MEAN_MOTION":"15.07213377","MEAN_ANOMALY":"278.2100","CENTER_NAME":"EARTH","OBJECT_ID":"2021-024BJ","OBJECT_TYPE":"PAYLOAD","SEMIMAJOR_AXIS":"6922.857","SITE":"AFETR","APOAPSIS":"546.088","PERIAPSIS":"543.356","EPHEMERIS_TYPE":"0","COUNTRY_CODE":"US","MEAN_MOTION_DDOT":"0.0000000000000","TLE_LINE2":"2 48033  53.0531 157.6353 0001973  81.9113 278.2100 15.07213377 38737","RA_OF_ASC_NODE":"157.6353","RCS_SIZE":"LARGE","ELEMENT_SET_NO":"999","TLE_LINE1":"1 48033U 21024BJ  21329.56687795  .00001373  00000-0  10882-3 0  9993","MEAN_MOTION_DOT":"0.00001373","REV_AT_EPOCH":"3873","DECAY_DATE":null,"ARG_OF_PERICENTER":"81.9113","FILE":"3223911","BSTAR":"0.00010882000000","REF_FRAME":"TEME","OBJECT_NAME":"STARLINK-2286","ECCENTRICITY":"0.00019730"},{"EPHEMERIS_TYPE":"0","COUNTRY_CODE":"US","PERIAPSIS":"545.457","SITE":"AFETR","SEMIMAJOR_AXIS":"6925.359","APOAPSIS":"548.992","OBJECT_TYPE":"PAYLOAD","OBJECT_ID":"2021-024BK","MEAN_MOTION":"15.06396500","MEAN_ANOMALY":"277.7454","CENTER_NAME":"EARTH","TIME_SYSTEM":"UTC","NORAD_CAT_ID":"48034","EPOCH":"2021-11-25T18:48:30.382272","LAUNCH_DATE":"2021-03-24","MEAN_ELEMENT_THEORY":"SGP4","CLASSIFICATION_TYPE":"U","PERIOD":"95.592","GP_ID":"190493729","INCLINATION":"53.0548","ECCENTRICITY":"0.00025520","REF_FRAME":"TEME","OBJECT_NAME":"STARLINK-2288","FILE":"3224126","BSTAR":"-0.00012318000000","ARG_OF_PERICENTER":"82.3825","DECAY_DATE":null,"MEAN_MOTION_DOT":"-0.00002116","REV_AT_EPOCH":"3876","TLE_LINE1":"1 48034U 21024BK  21329.78368498 -.00002116  00000-0 -12318-3 0  9998","MEAN_MOTION_DDOT":"0.0000000000000","TLE_LINE2":"2 48034  53.0548 156.7599 0002552  82.3825 277.7454 15.06396500 38765","RCS_SIZE":"LARGE","RA_OF_ASC_NODE":"156.7599","ELEMENT_SET_NO":"999"},{"CENTER_NAME":"EARTH","MEAN_ANOMALY":"97.4088","MEAN_MOTION":"15.80412616","OBJECT_TYPE":"PAYLOAD","OBJECT_ID":"2021-024BL","INCLINATION":"53.0542","GP_ID":"190492477","PERIOD":"91.115","CLASSIFICATION_TYPE":"U","MEAN_ELEMENT_THEORY":"SGP4","LAUNCH_DATE":"2021-03-24","EPOCH":"2021-11-25T20:00:01.000224","NORAD_CAT_ID":"48035","TIME_SYSTEM":"UTC","PERIAPSIS":"326.362","COUNTRY_CODE":"US","EPHEMERIS_TYPE":"0","APOAPSIS":"332.188","SEMIMAJOR_AXIS":"6707.410","SITE":"AFETR","MEAN_MOTION_DOT":"0.00493410","REV_AT_EPOCH":"368","DECAY_DATE":null,"ELEMENT_SET_NO":"999","RCS_SIZE":"MEDIUM","RA_OF_ASC_NODE":"59.5182","TLE_LINE2":"2 48035  53.0542  59.5182 0004343 275.1702  97.4088 15.80412616  3686","MEAN_MOTION_DDOT":"0.0000000000000","TLE_LINE1":"1 48035U 21024BL  21329.83334491  .00493410  00000-0  24132-2 0  9996","OBJECT_NAME":"STARLINK-2287","REF_FRAME":"TEME","ECCENTRICITY":"0.00043430","ARG_OF_PERICENTER":"275.1702","BSTAR":"0.00241320000000","FILE":"3224126"},{"ARG_OF_PERICENTER":"87.3449","BSTAR":"-0.00000948560000","FILE":"3224126","OBJECT_NAME":"STARLINK-2295","REF_FRAME":"TEME","ECCENTRICITY":"0.00019350","RCS_SIZE":"LARGE","ELEMENT_SET_NO":"999","RA_OF_ASC_NODE":"156.7250","TLE_LINE2":"2 48036  53.0537 156.7250 0001935  87.3449 272.7762 15.06387906 38767","MEAN_MOTION_DDOT":"0.0000000000000","TLE_LINE1":"1 48036U 21024BM  21329.79105643 -.00000423  00000-0 -94856-5 0  9990","REV_AT_EPOCH":"3876","MEAN_MOTION_DOT":"-0.00000423","DECAY_DATE":null,"APOAPSIS":"548.591","SEMIMAJOR_AXIS":"6925.386","SITE":"AFETR","PERIAPSIS":"545.911","COUNTRY_CODE":"US","EPHEMERIS_TYPE":"0","INCLINATION":"53.0537","PERIOD":"95.593","GP_ID":"190492727","CLASSIFICATION_TYPE":"U","MEAN_ELEMENT_THEORY":"SGP4","LAUNCH_DATE":"2021-03-24","EPOCH":"2021-11-25T18:59:07.275552","NORAD_CAT_ID":"48036","TIME_SYSTEM":"UTC","CENTER_NAME":"EARTH","MEAN_ANOMALY":"272.7762","MEAN_MOTION":"15.06387906","OBJECT_ID":"2021-024BM","OBJECT_TYPE":"PAYLOAD"},{"ARG_OF_PERICENTER":"39.6857","FILE":"3223809","BSTAR":"-0.00000165350000","REF_FRAME":"TEME","OBJECT_NAME":"STARLINK-2048","ECCENTRICITY":"0.00024980","MEAN_MOTION_DDOT":"0.0000000000000","TLE_LINE2":"2 48092  53.0556 282.6938 0002498  39.6857 320.4314 15.06394067 37163","RA_OF_ASC_NODE":"282.6938","RCS_SIZE":"LARGE","ELEMENT_SET_NO":"999","TLE_LINE1":"1 48092U 21027A   21329.57032405 -.00000307  00000-0 -16535-5 0  9995","MEAN_MOTION_DOT":"-0.00000307","REV_AT_EPOCH":"3716","DECAY_DATE":null,"SEMIMAJOR_AXIS":"6925.367","SITE":"AFETR","APOAPSIS":"548.962","PERIAPSIS":"545.502","EPHEMERIS_TYPE":"0","COUNTRY_CODE":"US","CLASSIFICATION_TYPE":"U","GP_ID":"190440708","PERIOD":"95.593","INCLINATION":"53.0556","TIME_SYSTEM":"UTC","NORAD_CAT_ID":"48092","EPOCH":"2021-11-25T13:41:15.997920","MEAN_ELEMENT_THEORY":"SGP4","LAUNCH_DATE":"2021-04-07","MEAN_MOTION":"15.06394067","MEAN_ANOMALY":"320.4314","CENTER_NAME":"EARTH","OBJECT_TYPE":"PAYLOAD","OBJECT_ID":"2021-027A"},{"REF_FRAME":"TEME","OBJECT_NAME":"STARLINK-2404","ECCENTRICITY":"0.00016450","ARG_OF_PERICENTER":"56.0599","FILE":"3223911","BSTAR":"-0.00001951600000","REV_AT_EPOCH":"3664","MEAN_MOTION_DOT":"-0.00000572","DECAY_DATE":null,"MEAN_MOTION_DDOT":"0.0000000000000","TLE_LINE2":"2 48093  53.0571 348.1463 0001645  56.0599 304.0546 15.06402491 36649","ELEMENT_SET_NO":"999","RCS_SIZE":"LARGE","RA_OF_ASC_NODE":"348.1463","TLE_LINE1":"1 48093U 21027B   21329.47402813 -.00000572  00000-0 -19516-4 0  9994","PERIAPSIS":"546.067","EPHEMERIS_TYPE":"0","COUNTRY_CODE":"US","SEMIMAJOR_AXIS":"6925.341","SITE":"AFETR","APOAPSIS":"548.345","MEAN_MOTION":"15.06402491","MEAN_ANOMALY":"304.0546","CENTER_NAME":"EARTH","OBJECT_TYPE":"PAYLOAD","OBJECT_ID":"2021-027B","CLASSIFICATION_TYPE":"U","GP_ID":"190464994","PERIOD":"95.592","INCLINATION":"53.0571","TIME_SYSTEM":"UTC","NORAD_CAT_ID":"48093","EPOCH":"2021-11-25T11:22:36.030432","MEAN_ELEMENT_THEORY":"SGP4","LAUNCH_DATE":"2021-04-07"},{"MEAN_MOTION_DOT":"0.00001849","REV_AT_EPOCH":"3651","DECAY_DATE":null,"TLE_LINE2":"2 48094  53.0564 357.9851 0001430  64.8762 295.2375 15.06409834 36517","RCS_SIZE":"LARGE","RA_OF_ASC_NODE":"357.9851","ELEMENT_SET_NO":"999","MEAN_MOTION_DDOT":"0.0000000000000","TLE_LINE1":"1 48094U 21027C   21329.51090678  .00001849  00000-0  14297-3 0  9998","OBJECT_NAME":"STARLINK-2412","REF_FRAME":"TEME","ECCENTRICITY":"0.00014300","ARG_OF_PERICENTER":"64.8762","BSTAR":"0.00014297000000","FILE":"3223911","CENTER_NAME":"EARTH","MEAN_MOTION":"15.06409834","MEAN_ANOMALY":"295.2375","OBJECT_ID":"2021-027C","OBJECT_TYPE":"PAYLOAD","PERIOD":"95.592","GP_ID":"190465244","INCLINATION":"53.0564","CLASSIFICATION_TYPE":"U","EPOCH":"2021-11-25T12:15:42.345792","MEAN_ELEMENT_THEORY":"SGP4","LAUNCH_DATE":"2021-04-07","TIME_SYSTEM":"UTC","NORAD_CAT_ID":"48094","PERIAPSIS":"546.193","COUNTRY_CODE":"US","EPHEMERIS_TYPE":"0","SITE":"AFETR","SEMIMAJOR_AXIS":"6925.318","APOAPSIS":"548.174"}];
